KRAKSAT                 
1 44427U 98067QM  21225.01687678  .00025537  00000-0  20901-3 0  9993
2 44427  51.6408  12.2388 0002270  93.0569  12.9356 15.70355685120356
VCC A                   
1 44428U 98067QN  21224.52184518  .00059847  00000-0  29265-3 0  9997
2 44428  51.6340 359.9952 0001262 325.1247  34.9673 15.81705777120474
ENTRYSAT                
1 44429U 98067QP  21222.50999637  .13114982  12639-4  26452-3 0  9996
2 44429  51.6073 351.2662 0008582 295.0172  64.9966 16.46454560120409
VCC B                   
1 44431U 98067QR  21224.38023970  .00070041  00000-0  32354-3 0  9991
2 44431  51.6307 359.6708 0002333 328.8547  31.2317 15.82863738120401
DUCHIFAT-3              
1 44854U 19089C   21224.99283542  .00000477  00000-0  44428-4 0  9999
2 44854  36.9658 126.2541 0008938 244.2117 115.7681 14.99570483 91597
EYESAT-NANO             
1 44877U 19092E   21224.44545059  .00001308  00000-0  67128-4 0  9998
2 44877  97.4621  47.2953 0013065   2.0446 358.0839 15.18226959 91433
ORBITAL FACTORY 2 (OF-2)
1 45113U 19071C   21224.42440277  .00002517  00000-0  81044-4 0  9999
2 45113  51.6419 126.0476 0012289 133.7269 226.4734 15.36182219 85774
M2 PATHFINDER           
1 45727U 20037E   21225.04386889  .00000412  00000-0  46773-4 0  9993
2 45727  97.7165  41.6411 0012901 346.0651  14.0225 14.91419129 60851
NETSAT-4                
1 46504U 20068U   21224.38861510 -.00000184  00000-0 -92951-5 0  9994
2 46504  97.6881 160.7855 0012552 300.2431  59.7546 15.02152878 47635
NETSAT-3                
1 46505U 20068V   21224.33009683 -.00000061  00000-0  34975-7 0  9992
2 46505  97.6910 160.6950 0010679 314.3246  45.7067 15.02131081 47638
NETSAT-1                
1 46506U 20068W   21224.53771311 -.00000009  00000-0  39019-5 0  9993
2 46506  97.6954 160.8705 0008044 333.8361  26.2451 15.02108002 47665
NETSAT-2                
1 46507U 20068X   21224.60886665  .00000165  00000-0  17139-4 0  9991
2 46507  97.6953 160.9374 0006659 344.6726  15.4298 15.02087312 47628
SPOC                    
1 46921U 98067RR  21224.56544177  .00007558  00000-0  11556-3 0  9998
2 46921  51.6414  55.9907 0001365 285.3708  74.7133 15.55473149 43598
BOBCAT-1                
1 46922U 98067RS  21224.57356700  .00011609  00000-0  15990-3 0  9991
2 46922  51.6424  53.8213 0001169 289.2227  70.8638 15.57725213 43588
NEUTRON-1               
1 46923U 98067RT  21224.52135160  .00007449  00000-0  11454-3 0  9990
2 46923  51.6417  56.4431 0001310 305.9943  54.0927 15.55343917 43615
1998-067RU              
1 46924U 98067RU  21224.89366463  .00027793  00000-0  30361-3 0  9995
2 46924  51.6389  47.6596 0001158 328.0587  32.0337 15.63116002 43712
DESCENT                 
1 46927U 98067RX  21224.52677455  .00007745  00000-0  11880-3 0  9994
2 46927  51.6416  56.4758 0001525 335.1693  24.9224 15.55344664 43510
SAI-1 NANOCONNECT-2     
1 47701U 21015C   21224.20522388 -.00000071  00000-0  00000-0 0  9998
2 47701  97.4552 298.3674 0014221 101.0183 259.2688 15.22882370 25102
WARP-01                 
1 47924U 98067SA  21224.82170435  .00010579  00000-0  17258-3 0  9995
2 47924  51.6417  59.9244 0004092 317.5646  42.5027 15.53179936 23556
RSP-01                  
1 47925U 98067SB  21224.83296983  .00008199  00000-0  13762-3 0  9995
2 47925  51.6424  60.0088 0001717 231.7395 128.3441 15.52732891 23538
TAUSAT-1                
1 47926U 98067SC  21224.58722403  .00008763  00000-0  14243-3 0  9991
2 47926  51.6413  60.6144 0002801 235.3331 124.7396 15.53539121 23497
TSURU                   
1 47927U 98067SD  21224.58780827  .00006646  00000-0  11411-3 0  9998
2 47927  51.6424  61.3709 0001758 229.0369 131.0469 15.52453388 23497
STARS-EC                
1 47928U 98067SE  21224.24996491  .00010181  00000-0  16685-3 0  9995
2 47928  51.6418  62.8572 0004673 319.1331  40.9308 15.53099108 23424
MAYA-2                  
1 47929U 98067SF  21224.58480346  .00006731  00000-0  11536-3 0  9996
2 47929  51.6423  61.3507 0001866 225.2304 134.8534 15.52480103 23456
HIROGARI (OPUSAT-II)    
1 47930U 98067SG  21225.12019800  .00011734  00000-0  18780-3 0  9999
2 47930  51.6423  58.1791 0001925 221.6395 138.4449 15.53593216 23583
GUARANISAT-1            
1 47931U 98067SH  21224.26162207  .00007007  00000-0  11974-3 0  9990
2 47931  51.6426  62.9443 0001914 223.9288 136.1550 15.52492143 23447
SMOG-1                  
1 47964U 21022AJ  21224.66731354  .00001215  00000-0  84443-4 0  9999
2 47964  97.5523 125.9638 0021328 111.2381 249.1127 15.07199369 20345
MMSATS-1                
1 47976U 98067SJ  21224.91738952  .00002971  00000-0  59427-4 0  9998
2 47976  51.6488  61.2931 0001730 310.6212  49.4625 15.50283392 22300
BCCSAT-1                
1 48041U 21022AK  21224.51839352  .00000638  00000-0  47043-4 0  9990
2 48041  97.5533 125.7211 0017687 108.4944 251.8208 15.06645322 20292
RAMSAT                  
1 48850U 98067SL  21224.82092535  .00005206  00000-0  97835-4 0  9999
2 48850  51.6423  62.1548 0003933 356.2531   3.8427 15.50382750  9253
SOAR                    
1 48851U 98067SM  21224.85990497  .00015790  00000-0  26695-3 0  9991
2 48851  51.6404  61.6614 0003184 341.7088  18.3786 15.51762014  9306
BD-28                   
1 48867U 98067SN  21225.07764412  .00006123  00000-0  11294-3 0  9998
2 48867  51.6425  60.8708 0002993  35.1715 324.9471 15.50566166  8045
MIR-SAT 1               
1 48868U 98067SP  21224.56337501  .00010670  00000-0  18919-3 0  9990
2 48868  51.6420  63.4355 0002250 353.7019   6.3942 15.50816820  7992
BEIJING 1               
1 28890U 05043A   21225.08934330  .00000005  00000-0  10406-4 0  9991
2 28890  98.0842 348.8841 0016347  63.7245 296.5630 14.61341637842094
HJ-1A                   
1 33320U 08041A   21224.98951792  .00000113  00000-0  22537-4 0  9993
2 33320  97.7192 266.8357 0021767 150.8109 209.4321 14.77663126696838
HJ-1B                   
1 33321U 08041B   21225.02869718  .00000141  00000-0  26639-4 0  9994
2 33321  97.7396 269.8021 0034765 169.5626 190.6318 14.77403282696842
YAOGAN 4                
1 33446U 08061A   21225.11194704  .00000055  00000-0  14784-4 0  9992
2 33446  97.7778 170.3762 0017536  56.0936 304.1939 14.77115519684079
DEIMOS-1                
1 35681U 09041A   21225.11718683 -.00000073  00000-0 -42065-5 0  9998
2 35681  97.7523  86.3614 0002731 111.9919 248.1576 14.71906099646410
UK-DMC 2                
1 35683U 09041C   21224.86516711  .00000008  00000-0  85924-5 0  9996
2 35683  97.6851  50.0167 0001535 106.9046 253.2331 14.71222375646135
RISAT 1                 
1 38248U 12017A   21225.01559852  .00000295  00000-0  21696-4 0  9997
2 38248  97.5602 235.0702 0002874 222.3460 137.7548 15.10594559512260
DMC3-FM1                
1 40715U 15032A   21225.09996079  .00000033  00000-0  12623-4 0  9993
2 40715  97.8859 114.2966 0014555 314.7128  45.2896 14.73691075327751
DMC3-FM2                
1 40716U 15032B   21225.12332478  .00000033  00000-0  12554-4 0  9998
2 40716  97.8888 114.8211 0012116 324.8139  35.2282 14.73688667327760
DMC3-FM3                
1 40717U 15032C   21225.07775940  .00000024  00000-0  11241-4 0  9990
2 40717  97.8917 115.5865 0015581 317.1701  42.8298 14.73676972327752
SAUDISAT 1C             
1 27607U 02058C   21224.81655793  .00000030  00000-0  24769-4 0  9997
2 27607  64.5551 165.9877 0047584   3.3037 356.8370 14.75774747  3038
SAUDISAT 2              
1 28371U 04025F   21225.09301350 -.00000046  00000-0  98077-7 0  9994
2 28371  98.3316 177.0843 0025079 336.6149  23.3903 14.54438769908466
SAUDISAT 3              
1 31118U 07012B   21225.14149022 -.00000019  00000-0  49499-5 0  9990
2 31118  97.9246 175.4558 0016576  97.4240 262.8850 14.69212393767886
PISAT                   
1 41784U 16059B   21224.77336396  .00000070  00000-0  22209-4 0  9996
2 41784  97.9626 274.3996 0033175  65.9392 294.5276 14.63647750260532
FLYING LAPTOP           
1 42831U 17042G   21224.78866509  .00000480  00000-0  53363-4 0  9998
2 42831  97.4632  91.5514 0013009 325.0939  34.9442 14.91329721222089
SALSAT                  
1 46495U 20068K   21224.63226254  .00001005  00000-0  78096-4 0  9995
2 46495  97.6949 161.8005 0015742 240.1521 119.8141 15.03519354 47775
PROBA-1                 
1 26958U 01049B   21225.07759766 -.00000170  00000-0 -89635-5 0  9999
2 26958  97.7737 181.1623 0071395 293.5524  65.8230 14.95737645 78379
BIRD 2                  
1 26959U 01049C   21224.51176384  .00001722  00000-0  46419-4 0  9991
2 26959  97.7914 291.5769 0008717  46.4017 313.7949 15.39362871405600
CUTE-1 (CO-55)          
1 27844U 03031E   21224.47283315  .00000038  00000-0  36604-4 0  9990
2 27844  98.6803 231.8348 0008644 278.0907  81.9290 14.22325108939946
CUBESAT XI-IV (CO-57)   
1 27848U 03031J   21224.48271190  .00000022  00000-0  29845-4 0  9995
2 27848  98.6858 232.4055 0008612 293.2859  66.7412 14.21900368939800
GENESIS 1               
1 29252U 06029A   21224.46036945  .00000578  00000-0  37023-4 0  9994
2 29252  64.5222   3.9362 0049446 311.0206  48.6647 15.18778648832021
FALCONSAT-3             
1 30776U 07006E   21224.33761843  .00003617  00000-0  85839-4 0  9996
2 30776  35.4340 100.9261 0001734  20.3950 339.6848 15.41311130801737
GENESIS 2               
1 31789U 07028A   21224.52470809  .00000228  00000-0  21219-4 0  9992
2 31789  64.4966  46.2489 0006827  23.5512 336.5922 15.17855445779052
APRIZESAT 4             
1 35684U 09041D   21224.56243967  .00000031  00000-0  12001-4 0  9995
2 35684  98.3094 222.6646 0045711 262.1111  97.4909 14.79388152649398
APRIZESAT 3             
1 35686U 09041F   21224.23809134  .00000114  00000-0  18597-4 0  9993
2 35686  98.1336 298.7880 0073956 115.7216 245.1659 14.87536567652631
PROBA-2                 
1 36037U 09059B   21224.48025496 -.00000020  00000-0  60498-5 0  9996
2 36037  98.2244  51.9303 0013052 347.3493  12.7374 14.53159401624385
